[
    {
        "Altitude(m)": 565913.4729796796,
        "Argument of Periapsis(deg)": 0.0,
        "Eccentricity": 0.0,
        "Inclination(deg)": 97.0,
        "Latitude(deg)": 18.471084545062016,
        "Longitude(deg)": -127.631499130829,
        "Mean Anomaly(deg)": 161.3793,
        "RAAN(deg)": 150.0,
        "Satellite Name": "Starlink Shell 3 1900",
        "Satellite Number": 1900,
        "Semi-Major Axis(m)": 6938478.169268562,
        "Time(s)": 0
    },
    {
        "Altitude(m)": 565873.7629243002,
        "Argument of Periapsis(deg)": -0.0003965466804030246,
        "Eccentricity": 0.0,
        "Inclination(deg)": 97.0,
        "Latitude(deg)": 17.847547207649473,
        "Longitude(deg)": -127.75757899792428,
        "Mean Anomaly(deg)": 162.00477619770504,
        "RAAN(deg)": 150.00010433427403,
        "Satellite Name": "Starlink Shell 3 1900",
        "Satellite Number": 1900,
        "Semi-Major Axis(m)": 6938478.169268562,
        "Time(s)": 10
    },
    {
        "Altitude(m)": 565837.8040841523,
        "Argument of Periapsis(deg)": -0.0007930933608060492,
        "Eccentricity": 0.0,
        "Inclination(deg)": 97.0,
        "Latitude(deg)": 17.22393724247636,
        "Longitude(deg)": -127.88307427745434,
        "Mean Anomaly(deg)": 162.63025239541003,
        "RAAN(deg)": 150.00020866854803,
        "Satellite Name": "Starlink Shell 3 1900",
        "Satellite Number": 1900,
        "Semi-Major Axis(m)": 6938478.169268562,
        "Time(s)": 20
    },
    {
        "Altitude(m)": 565805.6417554746,
        "Argument of Periapsis(deg)": -0.001189640041209074,
        "Eccentricity": 0.0,
        "Inclination(deg)": 97.0,
        "Latitude(deg)": 16.600257806927882,
        "Longitude(deg)": -128.00801060418894,
        "Mean Anomaly(deg)": 163.25572859311518,
        "RAAN(deg)": 150.00031300282205,
        "Satellite Name": "Starlink Shell 3 1900",
        "Satellite Number": 1900,
        "Semi-Major Axis(m)": 6938478.169268562,
        "Time(s)": 30
    },
    {
        "Altitude(m)": 565777.3194990891,
        "Argument of Periapsis(deg)": -0.0015861867216120985,
        "Eccentricity": 0.0,
        "Inclination(deg)": 97.0,
        "Latitude(deg)": 15.976512044399367,
        "Longitude(deg)": -128.13241251400692,
        "Mean Anomaly(deg)": 163.8812047908202,
        "RAAN(deg)": 150.00041733709605,
        "Satellite Name": "Starlink Shell 3 1900",
        "Satellite Number": 1900,
        "Semi-Major Axis(m)": 6938478.169268562,
        "Time(s)": 40
    },
    {
        "Altitude(m)": 565752.8791151993,
        "Argument of Periapsis(deg)": -0.0019827334020151234,
        "Eccentricity": 0.0,
        "Inclination(deg)": 97.0,
        "Latitude(deg)": 15.35270308546847,
        "Longitude(deg)": -128.2563044841221,
        "Mean Anomaly(deg)": 164.50668098852523,
        "RAAN(deg)": 150.00052167137008,
        "Satellite Name": "Starlink Shell 3 1900",
        "Satellite Number": 1900,
        "Semi-Major Axis(m)": 6938478.169268562,
        "Time(s)": 50
    },
    {
        "Altitude(m)": 565732.3606190044,
        "Argument of Periapsis(deg)": -0.002379280082418148,
        "Eccentricity": 0.0,
        "Inclination(deg)": 97.0,
        "Latitude(deg)": 14.728834048974061,
        "Longitude(deg)": -128.37971045914236,
        "Mean Anomaly(deg)": 165.13215718623024,
        "RAAN(deg)": 150.00062600564405,
        "Satellite Name": "Starlink Shell 3 1900",
        "Satellite Number": 1900,
        "Semi-Major Axis(m)": 6938478.169268562,
        "Time(s)": 60
    },
    {
        "Altitude(m)": 565715.8022172474,
        "Argument of Periapsis(deg)": -0.002775826762821173,
        "Eccentricity": 0.0,
        "Inclination(deg)": 97.0,
        "Latitude(deg)": 14.104908043006226,
        "Longitude(deg)": -128.50265337591657,
        "Mean Anomaly(deg)": 165.75763338393529,
        "RAAN(deg)": 150.00073033991808,
        "Satellite Name": "Starlink Shell 3 1900",
        "Satellite Number": 1900,
        "Semi-Major Axis(m)": 6938478.169268562,
        "Time(s)": 70
    },
    {
        "Altitude(m)": 565703.2402856101,
        "Argument of Periapsis(deg)": -0.003172373443224197,
        "Eccentricity": 0.0,
        "Inclination(deg)": 97.0,
        "Latitude(deg)": 13.480928165817135,
        "Longitude(deg)": -128.62515620012172,
        "Mean Anomaly(deg)": 166.38310958164035,
        "RAAN(deg)": 150.00083467419208,
        "Satellite Name": "Starlink Shell 3 1900",
        "Satellite Number": 1900,
        "Semi-Major Axis(m)": 6938478.169268562,
        "Time(s)": 80
    },
    {
        "Altitude(m)": 565694.7093470511,
        "Argument of Periapsis(deg)": -0.0035689201236272223,
        "Eccentricity": 0.0,
        "Inclination(deg)": 97.0,
        "Latitude(deg)": 12.856897506651372,
        "Longitude(deg)": -128.74724144891874,
        "Mean Anomaly(deg)": 167.00858577934542,
        "RAAN(deg)": 150.00093900846608,
        "Satellite Name": "Starlink Shell 3 1900",
        "Satellite Number": 1900,
        "Semi-Major Axis(m)": 6938478.169268562,
        "Time(s)": 90
    },
    {
        "Altitude(m)": 565690.2420510272,
        "Argument of Periapsis(deg)": -0.003965466804030247,
        "Eccentricity": 0.0,
        "Inclination(deg)": 97.0,
        "Latitude(deg)": 12.232819146506193,
        "Longitude(deg)": -128.86893071261846,
        "Mean Anomaly(deg)": 167.63406197705044,
        "RAAN(deg)": 150.0010433427401,
        "Satellite Name": "Starlink Shell 3 1900",
        "Satellite Number": 1900,
        "Semi-Major Axis(m)": 6938478.169268562,
        "Time(s)": 100
    },
    {
        "Altitude(m)": 565689.8691536831,
        "Argument of Periapsis(deg)": -0.004362013484433271,
        "Eccentricity": 0.0,
        "Inclination(deg)": 97.0,
        "Latitude(deg)": 11.608696158823347,
        "Longitude(deg)": -128.9902456882985,
        "Mean Anomaly(deg)": 168.25953817475548,
        "RAAN(deg)": 150.0011476770141,
        "Satellite Name": "Starlink Shell 3 1900",
        "Satellite Number": 1900,
        "Semi-Major Axis(m)": 6938478.169268562,
        "Time(s)": 110
    },
    {
        "Altitude(m)": 565693.6194989611,
        "Argument of Periapsis(deg)": -0.004758560164836296,
        "Eccentricity": 0.0,
        "Inclination(deg)": 97.0,
        "Latitude(deg)": 10.98453161011778,
        "Longitude(deg)": -129.1112076996865,
        "Mean Anomaly(deg)": 168.88501437246052,
        "RAAN(deg)": 150.0012520112881,
        "Satellite Name": "Starlink Shell 3 1900",
        "Satellite Number": 1900,
        "Semi-Major Axis(m)": 6938478.169268562,
        "Time(s)": 120
    },
    {
        "Altitude(m)": 565701.5200006603,
        "Argument of Periapsis(deg)": -0.005155106845239321,
        "Eccentricity": 0.0,
        "Inclination(deg)": 97.0,
        "Latitude(deg)": 10.36032856054585,
        "Longitude(deg)": -129.231837216243,
        "Mean Anomaly(deg)": 169.5104905701655,
        "RAAN(deg)": 150.00135634556213,
        "Satellite Name": "Starlink Shell 3 1900",
        "Satellite Number": 1900,
        "Semi-Major Axis(m)": 6938478.169268562,
        "Time(s)": 130
    },
    {
        "Altitude(m)": 565713.5956254881,
        "Argument of Periapsis(deg)": -0.005551653525642346,
        "Eccentricity": 0.0,
        "Inclination(deg)": 97.0,
        "Latitude(deg)": 9.736090064420624,
        "Longitude(deg)": -129.3521548843724,
        "Mean Anomaly(deg)": 170.13596676787066,
        "RAAN(deg)": 150.00146067983613,
        "Satellite Name": "Starlink Shell 3 1900",
        "Satellite Number": 1900,
        "Semi-Major Axis(m)": 6938478.169268562,
        "Time(s)": 140
    },
    {
        "Altitude(m)": 565729.8693770746,
        "Argument of Periapsis(deg)": -0.005948200206045371,
        "Eccentricity": 0.0,
        "Inclination(deg)": 97.0,
        "Latitude(deg)": 9.11181917067421,
        "Longitude(deg)": -129.4721810450707,
        "Mean Anomaly(deg)": 170.76144296557567,
        "RAAN(deg)": 150.00156501411016,
        "Satellite Name": "Starlink Shell 3 1900",
        "Satellite Number": 1900,
        "Semi-Major Axis(m)": 6938478.169268562,
        "Time(s)": 150
    },
    {
        "Altitude(m)": 565750.3622809455,
        "Argument of Periapsis(deg)": -0.006344746886448394,
        "Eccentricity": 0.0,
        "Inclination(deg)": 97.0,
        "Latitude(deg)": 8.48751892327157,
        "Longitude(deg)": -129.5919352509332,
        "Mean Anomaly(deg)": 171.3869191632807,
        "RAAN(deg)": 150.00166934838416,
        "Satellite Name": "Starlink Shell 3 1900",
        "Satellite Number": 1900,
        "Semi-Major Axis(m)": 6938478.169268562,
        "Time(s)": 160
    },
    {
        "Altitude(m)": 565775.0933705475,
        "Argument of Periapsis(deg)": -0.00674129356685142,
        "Eccentricity": 0.0,
        "Inclination(deg)": 97.0,
        "Latitude(deg)": 7.863192361582958,
        "Longitude(deg)": -129.71143729544528,
        "Mean Anomaly(deg)": 172.01239536098575,
        "RAAN(deg)": 150.00177368265818,
        "Satellite Name": "Starlink Shell 3 1900",
        "Satellite Number": 1900,
        "Semi-Major Axis(m)": 6938478.169268562,
        "Time(s)": 170
    },
    {
        "Altitude(m)": 565804.07967422,
        "Argument of Periapsis(deg)": -0.007137840247254445,
        "Eccentricity": 0.0,
        "Inclination(deg)": 97.0,
        "Latitude(deg)": 7.238842520712998,
        "Longitude(deg)": -129.83070672885538,
        "Mean Anomaly(deg)": 172.63787155869076,
        "RAAN(deg)": 150.00187801693215,
        "Satellite Name": "Starlink Shell 3 1900",
        "Satellite Number": 1900,
        "Semi-Major Axis(m)": 6938478.169268562,
        "Time(s)": 180
    }
]